QIANFAN-113             
1 68640U 26075E   26198.88321132  .00000084  00000+0  11208-3 0  9994
2 68640  88.9921 317.8631 0002004 107.7082 252.4289 13.51018762 13957
QIANFAN-114             
1 68641U 26075F   26198.89140667  .00000086  00000+0  11435-3 0  9992
2 68641  88.9916 317.8800 0002060 104.6281 255.5098 13.51017555 13949
QIANFAN-115             
1 68642U 26075G   26198.92013450  .00000090  00000+0  12060-3 0  9996
2 68642  88.9916 317.8843 0002218 107.0047 253.1347 13.51014295 13948
QIANFAN-116             
1 68643U 26075H   26198.90779386  .00000084  00000+0  11178-3 0  9994
2 68643  88.9910 317.8434 0002022 114.4582 245.6780 13.51014832 13953
QIANFAN-117             
1 68644U 26075J   26198.89544232  .00000020  00000+0  12226-4 0  9999
2 68644  88.9914 317.8617 0002184 110.9634 249.1751 13.51012621 13950
QIANFAN-118             
1 68645U 26075K   26198.92836697  .00000083  00000+0  10918-3 0  9997
2 68645  88.9919 317.8679 0001970 102.4298 257.7073 13.51014615 13955
QIANFAN-119             
1 68646U 26075L   26198.90371454  .00000080  00000+0  10549-3 0  9998
2 68646  88.9919 317.8660 0002291 112.2112 247.9282 13.51020890 13952
QIANFAN-120             
1 68647U 26075M   26198.91617011  .00000095  00000+0  12915-3 0  9997
2 68647  88.9921 317.8503 0002444 111.9668 248.1743 13.51021381 13966
QIANFAN-121             
1 68648U 26075N   26198.86668301  .00000078  00000+0  10237-3 0  9996
2 68648  88.9918 317.8596 0002046 102.8211 257.3169 13.51013423 13957
QIANFAN-122             
1 68649U 26075P   26198.93262929  .00000081  00000+0  10659-3 0  9993
2 68649  88.9917 317.8507 0002214 112.6395 247.4990 13.51017124 13952
QIANFAN-123             
1 68650U 26075Q   26198.89975686  .00000086  00000+0  11451-3 0  9997
2 68650  88.9914 317.8430 0002340 117.4307 242.7083 13.51015518 13936
QIANFAN-124             
1 68651U 26075R   26198.92440684  .00000100  00000+0  13605-3 0  9997
2 68651  88.9917 317.8503 0002232 114.5760 245.5624 13.51016767 13964
QIANFAN-125             
1 68652U 26075S   26198.86257490  .00000072  00000+0  92572-4 0  9991
2 68652  88.9916 317.8587 0002017 103.2520 256.8856 13.51013629 13951
QIANFAN-126             
1 68653U 26075T   26198.87087145  .00000084  00000+0  11151-3 0  9997
2 68653  88.9921 317.8247 0002354 116.8353 243.3039 13.51018709 13979
QIANFAN-127             
1 69073U 26104A   26198.67293503 -.01999925  00000+0 -31297+1 0  9996
2 69073  88.9910 338.3556 0010360  26.1683 333.9992 13.54381107  9270
QIANFAN-128             
1 69074U 26104B   26198.66323234  .00000007  00000+0 -67724-5 0  9992
2 69074  88.9897 338.3851 0009758 359.2655   0.8482 13.54196682  9255
