{"fetched_at":"2026-07-18T06:27:49.000Z","source":"https://celestrak.org/NORAD/elements/gp.php?GROUP=qianfan&FORMAT=JSON","constellation":"qianfan","records":[{"OBJECT_NAME":"QIANFAN-113","OBJECT_ID":"2026-075E","EPOCH":"2026-07-17T21:11:49.458048","CLASSIFICATION_TYPE":"U","MEAN_MOTION":13.51018762,"ECCENTRICITY":0.00020047,"INCLINATION":88.9921,"RA_OF_ASC_NODE":317.8631,"ARG_OF_PERICENTER":107.7082,"MEAN_ANOMALY":252.4289,"EPHEMERIS_TYPE":0,"NORAD_CAT_ID":68640,"ELEMENT_SET_NO":999,"REV_AT_EPOCH":1395,"BSTAR":0.00011207517,"MEAN_MOTION_DOT":8.4e-7,"MEAN_MOTION_DDOT":0},{"OBJECT_NAME":"QIANFAN-114","OBJECT_ID":"2026-075F","EPOCH":"2026-07-17T21:23:37.536288","CLASSIFICATION_TYPE":"U","MEAN_MOTION":13.51017555,"ECCENTRICITY":0.00020608,"INCLINATION":88.9916,"RA_OF_ASC_NODE":317.88,"ARG_OF_PERICENTER":104.6281,"MEAN_ANOMALY":255.5098,"EPHEMERIS_TYPE":0,"NORAD_CAT_ID":68641,"ELEMENT_SET_NO":999,"REV_AT_EPOCH":1394,"BSTAR":0.00011434773,"MEAN_MOTION_DOT":8.6e-7,"MEAN_MOTION_DDOT":0},{"OBJECT_NAME":"QIANFAN-115","OBJECT_ID":"2026-075G","EPOCH":"2026-07-17T22:04:59.620800","CLASSIFICATION_TYPE":"U","MEAN_MOTION":13.51014295,"ECCENTRICITY":0.00022181,"INCLINATION":88.9916,"RA_OF_ASC_NODE":317.8843,"ARG_OF_PERICENTER":107.0047,"MEAN_ANOMALY":253.1347,"EPHEMERIS_TYPE":0,"NORAD_CAT_ID":68642,"ELEMENT_SET_NO":999,"REV_AT_EPOCH":1394,"BSTAR":0.00012060113,"MEAN_MOTION_DOT":9e-7,"MEAN_MOTION_DDOT":0},{"OBJECT_NAME":"QIANFAN-116","OBJECT_ID":"2026-075H","EPOCH":"2026-07-17T21:47:13.389504","CLASSIFICATION_TYPE":"U","MEAN_MOTION":13.51014832,"ECCENTRICITY":0.00020227,"INCLINATION":88.991,"RA_OF_ASC_NODE":317.8434,"ARG_OF_PERICENTER":114.4582,"MEAN_ANOMALY":245.678,"EPHEMERIS_TYPE":0,"NORAD_CAT_ID":68643,"ELEMENT_SET_NO":999,"REV_AT_EPOCH":1395,"BSTAR":0.00011177616,"MEAN_MOTION_DOT":8.4e-7,"MEAN_MOTION_DDOT":0},{"OBJECT_NAME":"QIANFAN-117","OBJECT_ID":"2026-075J","EPOCH":"2026-07-17T21:29:26.216448","CLASSIFICATION_TYPE":"U","MEAN_MOTION":13.51012621,"ECCENTRICITY":0.00021844,"INCLINATION":88.9914,"RA_OF_ASC_NODE":317.8617,"ARG_OF_PERICENTER":110.9634,"MEAN_ANOMALY":249.1751,"EPHEMERIS_TYPE":0,"NORAD_CAT_ID":68644,"ELEMENT_SET_NO":999,"REV_AT_EPOCH":1395,"BSTAR":0.000012225535,"MEAN_MOTION_DOT":2e-7,"MEAN_MOTION_DDOT":0},{"OBJECT_NAME":"QIANFAN-118","OBJECT_ID":"2026-075K","EPOCH":"2026-07-17T22:16:50.906208","CLASSIFICATION_TYPE":"U","MEAN_MOTION":13.51014615,"ECCENTRICITY":0.00019708,"INCLINATION":88.9919,"RA_OF_ASC_NODE":317.8679,"ARG_OF_PERICENTER":102.4298,"MEAN_ANOMALY":257.7073,"EPHEMERIS_TYPE":0,"NORAD_CAT_ID":68645,"ELEMENT_SET_NO":999,"REV_AT_EPOCH":1395,"BSTAR":0.00010917852,"MEAN_MOTION_DOT":8.3e-7,"MEAN_MOTION_DDOT":0},{"OBJECT_NAME":"QIANFAN-119","OBJECT_ID":"2026-075L","EPOCH":"2026-07-17T21:41:20.936256","CLASSIFICATION_TYPE":"U","MEAN_MOTION":13.5102089,"ECCENTRICITY":0.00022911,"INCLINATION":88.9919,"RA_OF_ASC_NODE":317.866,"ARG_OF_PERICENTER":112.2112,"MEAN_ANOMALY":247.9282,"EPHEMERIS_TYPE":0,"NORAD_CAT_ID":68646,"ELEMENT_SET_NO":999,"REV_AT_EPOCH":1395,"BSTAR":0.00010549357,"MEAN_MOTION_DOT":8e-7,"MEAN_MOTION_DDOT":0},{"OBJECT_NAME":"QIANFAN-120","OBJECT_ID":"2026-075M","EPOCH":"2026-07-17T21:59:17.097504","CLASSIFICATION_TYPE":"U","MEAN_MOTION":13.51021381,"ECCENTRICITY":0.00024448,"INCLINATION":88.9921,"RA_OF_ASC_NODE":317.8503,"ARG_OF_PERICENTER":111.9668,"MEAN_ANOMALY":248.1743,"EPHEMERIS_TYPE":0,"NORAD_CAT_ID":68647,"ELEMENT_SET_NO":999,"REV_AT_EPOCH":1396,"BSTAR":0.0001291535,"MEAN_MOTION_DOT":9.5e-7,"MEAN_MOTION_DDOT":0},{"OBJECT_NAME":"QIANFAN-121","OBJECT_ID":"2026-075N","EPOCH":"2026-07-17T20:48:01.412064","CLASSIFICATION_TYPE":"U","MEAN_MOTION":13.51013423,"ECCENTRICITY":0.00020467,"INCLINATION":88.9918,"RA_OF_ASC_NODE":317.8596,"ARG_OF_PERICENTER":102.8211,"MEAN_ANOMALY":257.3169,"EPHEMERIS_TYPE":0,"NORAD_CAT_ID":68648,"ELEMENT_SET_NO":999,"REV_AT_EPOCH":1395,"BSTAR":0.00010236899,"MEAN_MOTION_DOT":7.8e-7,"MEAN_MOTION_DDOT":0},{"OBJECT_NAME":"QIANFAN-122","OBJECT_ID":"2026-075P","EPOCH":"2026-07-17T22:22:59.170656","CLASSIFICATION_TYPE":"U","MEAN_MOTION":13.51017124,"ECCENTRICITY":0.00022146,"INCLINATION":88.9917,"RA_OF_ASC_NODE":317.8507,"ARG_OF_PERICENTER":112.6395,"MEAN_ANOMALY":247.499,"EPHEMERIS_TYPE":0,"NORAD_CAT_ID":68649,"ELEMENT_SET_NO":999,"REV_AT_EPOCH":1395,"BSTAR":0.00010658607,"MEAN_MOTION_DOT":8.1e-7,"MEAN_MOTION_DDOT":0},{"OBJECT_NAME":"QIANFAN-123","OBJECT_ID":"2026-075Q","EPOCH":"2026-07-17T21:35:38.992704","CLASSIFICATION_TYPE":"U","MEAN_MOTION":13.51015518,"ECCENTRICITY":0.00023406,"INCLINATION":88.9914,"RA_OF_ASC_NODE":317.843,"ARG_OF_PERICENTER":117.4307,"MEAN_ANOMALY":242.7083,"EPHEMERIS_TYPE":0,"NORAD_CAT_ID":68650,"ELEMENT_SET_NO":999,"REV_AT_EPOCH":1393,"BSTAR":0.00011451085,"MEAN_MOTION_DOT":8.6e-7,"MEAN_MOTION_DDOT":0},{"OBJECT_NAME":"QIANFAN-124","OBJECT_ID":"2026-075R","EPOCH":"2026-07-17T22:11:08.750976","CLASSIFICATION_TYPE":"U","MEAN_MOTION":13.51016767,"ECCENTRICITY":0.00022326,"INCLINATION":88.9917,"RA_OF_ASC_NODE":317.8503,"ARG_OF_PERICENTER":114.576,"MEAN_ANOMALY":245.5624,"EPHEMERIS_TYPE":0,"NORAD_CAT_ID":68651,"ELEMENT_SET_NO":999,"REV_AT_EPOCH":1396,"BSTAR":0.00013604726,"MEAN_MOTION_DOT":0.000001,"MEAN_MOTION_DDOT":0},{"OBJECT_NAME":"QIANFAN-125","OBJECT_ID":"2026-075S","EPOCH":"2026-07-17T20:42:06.471360","CLASSIFICATION_TYPE":"U","MEAN_MOTION":13.51013629,"ECCENTRICITY":0.00020172,"INCLINATION":88.9916,"RA_OF_ASC_NODE":317.8587,"ARG_OF_PERICENTER":103.252,"MEAN_ANOMALY":256.8856,"EPHEMERIS_TYPE":0,"NORAD_CAT_ID":68652,"ELEMENT_SET_NO":999,"REV_AT_EPOCH":1395,"BSTAR":0.00009257201,"MEAN_MOTION_DOT":7.2e-7,"MEAN_MOTION_DDOT":0},{"OBJECT_NAME":"QIANFAN-126","OBJECT_ID":"2026-075T","EPOCH":"2026-07-17T20:54:03.293280","CLASSIFICATION_TYPE":"U","MEAN_MOTION":13.51018709,"ECCENTRICITY":0.00023547,"INCLINATION":88.9921,"RA_OF_ASC_NODE":317.8247,"ARG_OF_PERICENTER":116.8353,"MEAN_ANOMALY":243.3039,"EPHEMERIS_TYPE":0,"NORAD_CAT_ID":68653,"ELEMENT_SET_NO":999,"REV_AT_EPOCH":1397,"BSTAR":0.00011150833,"MEAN_MOTION_DOT":8.4e-7,"MEAN_MOTION_DDOT":0},{"OBJECT_NAME":"QIANFAN-127","OBJECT_ID":"2026-104A","EPOCH":"2026-07-17T16:09:01.586592","CLASSIFICATION_TYPE":"U","MEAN_MOTION":13.54381107,"ECCENTRICITY":0.00103603,"INCLINATION":88.991,"RA_OF_ASC_NODE":338.3556,"ARG_OF_PERICENTER":26.1683,"MEAN_ANOMALY":333.9992,"EPHEMERIS_TYPE":0,"NORAD_CAT_ID":69073,"ELEMENT_SET_NO":999,"REV_AT_EPOCH":927,"BSTAR":-3.1297212,"MEAN_MOTION_DOT":-0.01999925,"MEAN_MOTION_DDOT":0},{"OBJECT_NAME":"QIANFAN-128","OBJECT_ID":"2026-104B","EPOCH":"2026-07-17T15:55:03.274176","CLASSIFICATION_TYPE":"U","MEAN_MOTION":13.54196682,"ECCENTRICITY":0.00097584,"INCLINATION":88.9897,"RA_OF_ASC_NODE":338.3851,"ARG_OF_PERICENTER":359.2655,"MEAN_ANOMALY":0.8482,"EPHEMERIS_TYPE":0,"NORAD_CAT_ID":69074,"ELEMENT_SET_NO":999,"REV_AT_EPOCH":925,"BSTAR":-0.000006772428,"MEAN_MOTION_DOT":7e-8,"MEAN_MOTION_DDOT":0}]}
